{"type": "FeatureCollection", "features": [ {"type": "Feature", "properties": {"norad_id": 37065, "name": "FENGYUN 1C DEB", "group": "fengyun-1c-debris", "lat": -37.230907421328155, "lon": -26.463294500894513, "alt_km": 836.1643170631278, "timestamp": "2025-12-14T11:29:50.349422+00:00", "meta": {"OBJECT_NAME": "FENGYUN 1C DEB", "OBJECT_ID": "1999-025EEZ", "EPOCH": "2025-12-08T18:22:24.057408", "MEAN_MOTION": 13.59087735, "ECCENTRICITY": 0.0299072, "INCLINATION": 103.286, "RA_OF_ASC_NODE": 156.1612, "ARG_OF_PERICENTER": 251.0293, "MEAN_ANOMALY": 105.8204, "EPHEMERIS_TYPE": 0, "CLASSIFICATION_TYPE": "U", "NORAD_CAT_ID": 37065, "ELEMENT_SET_NO": 999, "REV_AT_EPOCH": 22148, "BSTAR": 0.0044200447, "MEAN_MOTION_DOT": 4.289e-05, "MEAN_MOTION_DDOT": 0}, "tle": {"line1": "1 37065U 99025EEZ 25342.76555622  .00004289  00000+0  44200-2 0  9994", "line2": "2 37065 103.2860 156.1612 0299072 251.0293 105.8204 13.59087735221481"}}, "geometry": {"type": "Point", "coordinates": [-26.463294500894513, -37.230907421328155]}}, {"type": "Feature", "properties": {"norad_id": 37067, "name": "FENGYUN 1C DEB", "group": "fengyun-1c-debris", "lat": -76.52470993014167, "lon": -25.336819978731704, "alt_km": 1012.2320126021659, "timestamp": "2025-12-14T11:29:50.349432+00:00", "meta": {"OBJECT_NAME": "FENGYUN 1C DEB", "OBJECT_ID": "1999-025EFB", "EPOCH": "2025-12-09T13:33:51.155424", "MEAN_MOTION": 14.00251066, "ECCENTRICITY": 0.0155817, "INCLINATION": 99.5374, "RA_OF_ASC_NODE": 284.984, "ARG_OF_PERICENTER": 120.3197, "MEAN_ANOMALY": 241.3483, "EPHEMERIS_TYPE": 0, "CLASSIFICATION_TYPE": "U", "NORAD_CAT_ID": 37067, "ELEMENT_SET_NO": 999, "REV_AT_EPOCH": 57364, "BSTAR": 0.0044947, "MEAN_MOTION_DOT": 7.338e-05, "MEAN_MOTION_DDOT": 0}, "tle": {"line1": "1 37067U 99025EFB 25343.56517541  .00007338  00000+0  44947-2 0  9999", "line2": "2 37067  99.5374 284.9840 0155817 120.3197 241.3483 14.00251066573642"}}, "geometry": {"type": "Point", "coordinates": [-25.336819978731704, -76.52470993014167]}}, {"type": "Feature", "properties": {"norad_id": 37069, "name": "FENGYUN 1C DEB", "group": "fengyun-1c-debris", "lat": 50.09937155256366, "lon": 145.1822082600532, "alt_km": 1272.9165912847466, "timestamp": "2025-12-14T11:29:50.349442+00:00", "meta": {"OBJECT_NAME": "FENGYUN 1C DEB", "OBJECT_ID": "1999-025EFD", "EPOCH": "2025-12-13T15:03:57.466080", "MEAN_MOTION": 13.3798876, "ECCENTRICITY": 0.04244193, "INCLINATION": 95.8483, "RA_OF_ASC_NODE": 317.6492, "ARG_OF_PERICENTER": 254.1915, "MEAN_ANOMALY": 101.2052, "EPHEMERIS_TYPE": 0, "CLASSIFICATION_TYPE": "U", "NORAD_CAT_ID": 37069, "ELEMENT_SET_NO": 999, "REV_AT_EPOCH": 87720, "BSTAR": 0.0030740188, "MEAN_MOTION_DOT": 2.711e-05, "MEAN_MOTION_DDOT": 0}, "tle": {"line1": "1 37069U 99025EFD 25347.62774845  .00002711  00000+0  30740-2 0  9990", "line2": "2 37069  95.8483 317.6492 0424419 254.1915 101.2052 13.37988760877204"}}, "geometry": {"type": "Point", "coordinates": [145.1822082600532, 50.09937155256366]}}, {"type": "Feature", "properties": {"norad_id": 37077, "name": "FENGYUN 1C DEB", "group": "fengyun-1c-debris", "lat": -14.208849054131692, "lon": 66.02210386338983, "alt_km": 696.0504665168191, "timestamp": "2025-12-14T11:29:50.349452+00:00", "meta": {"OBJECT_NAME": "FENGYUN 1C DEB", "OBJECT_ID": "1999-025EFM", "EPOCH": "2025-12-13T10:34:10.735392", "MEAN_MOTION": 14.41198407, "ECCENTRICITY": 0.00953337, "INCLINATION": 99.0351, "RA_OF_ASC_NODE": 62.6157, "ARG_OF_PERICENTER": 326.6002, "MEAN_ANOMALY": 32.9194, "EPHEMERIS_TYPE": 0, "CLASSIFICATION_TYPE": "U", "NORAD_CAT_ID": 37077, "ELEMENT_SET_NO": 999, "REV_AT_EPOCH": 84965, "BSTAR": 0.00053876552, "MEAN_MOTION_DOT": 1.783e-05, "MEAN_MOTION_DDOT": 0}, "tle": {"line1": "1 37077U 99025EFM 25347.44040203  .00001783  00000+0  53877-3 0  9998", "line2": "2 37077  99.0351  62.6157 0095333 326.6002  32.9194 14.41198407849651"}}, "geometry": {"type": "Point", "coordinates": [66.02210386338983, -14.208849054131692]}}, {"type": "Feature", "properties": {"norad_id": 37079, "name": "FENGYUN 1C DEB", "group": "fengyun-1c-debris", "lat": -48.175148625960745, "lon": 133.59052108729622, "alt_km": 708.329501014, "timestamp": "2025-12-14T11:29:50.349462+00:00", "meta": {"OBJECT_NAME": "FENGYUN 1C DEB", "OBJECT_ID": "1999-025EFP", "EPOCH": "2025-12-13T02:49:27.043104", "MEAN_MOTION": 14.59894284, "ECCENTRICITY": 0.00117235, "INCLINATION": 98.8571, "RA_OF_ASC_NODE": 122.1025, "ARG_OF_PERICENTER": 142.0543, "MEAN_ANOMALY": 218.1483, "EPHEMERIS_TYPE": 0, "CLASSIFICATION_TYPE": "U", "NORAD_CAT_ID": 37079, "ELEMENT_SET_NO": 999, "REV_AT_EPOCH": 64621, "BSTAR": 0.0055286173, "MEAN_MOTION_DOT": 0.00026542, "MEAN_MOTION_DDOT": 0}, "tle": {"line1": "1 37079U 99025EFP 25347.11767411  .00026542  00000+0  55286-2 0  9996", "line2": "2 37079  98.8571 122.1025 0011723 142.0543 218.1483 14.59894284646212"}}, "geometry": {"type": "Point", "coordinates": [133.59052108729622, -48.175148625960745]}}, {"type": "Feature", "properties": {"norad_id": 37081, "name": "FENGYUN 1C DEB", "group": "fengyun-1c-debris", "lat": -33.541765893126346, "lon": -45.11516313010366, "alt_km": 970.1664379759713, "timestamp": "2025-12-14T11:29:50.349475+00:00", "meta": {"OBJECT_NAME": "FENGYUN 1C DEB", "OBJECT_ID": "1999-025EFR", "EPOCH": "2025-12-11T04:20:52.810656", "MEAN_MOTION": 14.13829604, "ECCENTRICITY": 0.02642543, "INCLINATION": 98.708, "RA_OF_ASC_NODE": 137.4998, "ARG_OF_PERICENTER": 352.6633, "MEAN_ANOMALY": 7.0706, "EPHEMERIS_TYPE": 0, "CLASSIFICATION_TYPE": "U", "NORAD_CAT_ID": 37081, "ELEMENT_SET_NO": 999, "REV_AT_EPOCH": 58552, "BSTAR": 0.0037644522, "MEAN_MOTION_DOT": 9.927e-05, "MEAN_MOTION_DDOT": 0}, "tle": {"line1": "1 37081U 99025EFR 25345.18116679  .00009927  00000+0  37645-2 0  9995", "line2": "2 37081  98.7080 137.4998 0264254 352.6633   7.0706 14.13829604585528"}}, "geometry": {"type": "Point", "coordinates": [-45.11516313010366, -33.541765893126346]}}, {"type": "Feature", "properties": {"norad_id": 37400, "name": "FENGYUN 1C DEB", "group": "fengyun-1c-debris", "lat": 38.63904649337927, "lon": 178.5583617720667, "alt_km": 1022.0036790519553, "timestamp": "2025-12-14T11:29:50.349487+00:00", "meta": {"OBJECT_NAME": "FENGYUN 1C DEB", "OBJECT_ID": "1999-025EFS", "EPOCH": "2025-12-13T07:07:28.800768", "MEAN_MOTION": 13.63645312, "ECCENTRICITY": 0.04016555, "INCLINATION": 98.8378, "RA_OF_ASC_NODE": 184.6253, "ARG_OF_PERICENTER": 135.1591, "MEAN_ANOMALY": 228.2759, "EPHEMERIS_TYPE": 0, "CLASSIFICATION_TYPE": "U", "NORAD_CAT_ID": 37400, "ELEMENT_SET_NO": 999, "REV_AT_EPOCH": 80201, "BSTAR": 0.00060734109, "MEAN_MOTION_DOT": 7.95e-06, "MEAN_MOTION_DDOT": 0}, "tle": {"line1": "1 37400U 99025EFS 25347.29686112  .00000795  00000+0  60734-3 0  9998", "line2": "2 37400  98.8378 184.6253 0401655 135.1591 228.2759 13.63645312802014"}}, "geometry": {"type": "Point", "coordinates": [178.5583617720667, 38.63904649337927]}}, {"type": "Feature", "properties": {"norad_id": 37404, "name": "FENGYUN 1C DEB", "group": "fengyun-1c-debris", "lat": -55.64635284265507, "lon": 158.7117696131671, "alt_km": 787.2089076547609, "timestamp": "2025-12-14T11:29:50.349497+00:00", "meta": {"OBJECT_NAME": "FENGYUN 1C DEB", "OBJECT_ID": "1999-025EFW", "EPOCH": "2025-12-13T11:37:48.595872", "MEAN_MOTION": 14.31646844, "ECCENTRICITY": 0.004454, "INCLINATION": 98.4528, "RA_OF_ASC_NODE": 350.309, "ARG_OF_PERICENTER": 160.0887, "MEAN_ANOMALY": 353.4499, "EPHEMERIS_TYPE": 0, "CLASSIFICATION_TYPE": "U", "NORAD_CAT_ID": 37404, "ELEMENT_SET_NO": 999, "REV_AT_EPOCH": 82751, "BSTAR": 0.0010096395, "MEAN_MOTION_DOT": 2.678e-05, "MEAN_MOTION_DDOT": 0}, "tle": {"line1": "1 37404U 99025EFW 25347.48459023  .00002678  00000+0  10096-2 0  9999", "line2": "2 37404  98.4528 350.3090 0044540 160.0887 353.4499 14.31646844827514"}}, "geometry": {"type": "Point", "coordinates": [158.7117696131671, -55.64635284265507]}}, {"type": "Feature", "properties": {"norad_id": 37406, "name": "FENGYUN 1C DEB", "group": "fengyun-1c-debris", "lat": -13.043957278329703, "lon": -137.5323556804736, "alt_km": 872.7741777876818, "timestamp": "2025-12-14T11:29:50.349509+00:00", "meta": {"OBJECT_NAME": "FENGYUN 1C DEB", "OBJECT_ID": "1999-025EFY", "EPOCH": "2025-12-10T22:08:17.601216", "MEAN_MOTION": 14.04282623, "ECCENTRICITY": 0.0149683, "INCLINATION": 98.4429, "RA_OF_ASC_NODE": 217.1877, "ARG_OF_PERICENTER": 271.7264, "MEAN_ANOMALY": 103.1759, "EPHEMERIS_TYPE": 0, "CLASSIFICATION_TYPE": "U", "NORAD_CAT_ID": 37406, "ELEMENT_SET_NO": 999, "REV_AT_EPOCH": 63207, "BSTAR": 0.0017076, "MEAN_MOTION_DOT": 2.958e-05, "MEAN_MOTION_DDOT": 0}, "tle": {"line1": "1 37406U 99025EFY 25344.92242594  .00002958  00000+0  17076-2 0  9996", "line2": "2 37406  98.4429 217.1877 0149683 271.7264 103.1759 14.04282623632077"}}, "geometry": {"type": "Point", "coordinates": [-137.5323556804736, -13.043957278329703]}}, {"type": "Feature", "properties": {"norad_id": 37415, "name": "FENGYUN 1C DEB", "group": "fengyun-1c-debris", "lat": 11.22408406404837, "lon": 94.35246179872676, "alt_km": 1271.6926432407272, "timestamp": "2025-12-14T11:29:50.349519+00:00", "meta": {"OBJECT_NAME": "FENGYUN 1C DEB", "OBJECT_ID": "1999-025EGH", "EPOCH": "2025-12-08T13:21:24.699168", "MEAN_MOTION": 13.52085555, "ECCENTRICITY": 0.0285076, "INCLINATION": 98.9817, "RA_OF_ASC_NODE": 90.7824, "ARG_OF_PERICENTER": 192.9583, "MEAN_ANOMALY": 166.412, "EPHEMERIS_TYPE": 0, "CLASSIFICATION_TYPE": "U", "NORAD_CAT_ID": 37415, "ELEMENT_SET_NO": 999, "REV_AT_EPOCH": 62265, "BSTAR": 0.00090162, "MEAN_MOTION_DOT": 7.27e-06, "MEAN_MOTION_DDOT": 0}, "tle": {"line1": "1 37415U 99025EGH 25342.55653587  .00000727  00000+0  90162-3 0  9991", "line2": "2 37415  98.9817  90.7824 0285076 192.9583 166.4120 13.52085555622659"}}, "geometry": {"type": "Point", "coordinates": [94.35246179872676, 11.22408406404837]}}]}